{
  "type": "FeatureCollection",
  "features": [
    {
      "type": "Feature",
      "properties": {
        "norad_id": 33924,
        "name": "COSMOS 2251 DEB",
        "group": "cosmos-2251-debris",
        "lat": -50.99544080595458,
        "lon": -102.70443827356593,
        "alt_km": 779.9465472232005,
        "timestamp": "2025-12-07T18:50:17.107888+00:00",
        "meta_object_name": "COSMOS 2251 DEB",
        "meta_object_id": "1993-036ED",
        "meta_epoch": "2025-12-07T06:38:19.772736",
        "meta_mean_motion": 13.50209359,
        "meta_eccentricity": 0.04040616,
        "meta_inclination": 73.9143,
        "meta_ra_of_asc_node": 278.9826,
        "meta_arg_of_pericenter": 315.3959,
        "meta_mean_anomaly": 41.5276,
        "meta_ephemeris_type": 0,
        "meta_classification_type": "U",
        "meta_norad_cat_id": 33924,
        "meta_element_set_no": 999,
        "meta_rev_at_epoch": 82665,
        "meta_bstar": 0.0018823134,
        "meta_mean_motion_dot": 1.973e-05,
        "meta_mean_motion_ddot": 0,
        "tle_line1": "1 33924U 93036ED  25341.27661774  .00001973  00000+0  18823-2 0  9990",
        "tle_line2": "2 33924  73.9143 278.9826 0404061 315.3959  41.5276 13.50209359826651"
      },
      "geometry": {
        "type": "Point",
        "coordinates": [
          -102.70443827356593,
          -50.99544080595458
        ]
      }
    },
    {
      "type": "Feature",
      "properties": {
        "norad_id": 33928,
        "name": "COSMOS 2251 DEB",
        "group": "cosmos-2251-debris",
        "lat": -66.36185030424042,
        "lon": 20.68768965652598,
        "alt_km": 725.585025534564,
        "timestamp": "2025-12-07T18:50:17.107898+00:00",
        "meta_object_name": "COSMOS 2251 DEB",
        "meta_object_id": "1993-036EH",
        "meta_epoch": "2025-12-07T05:53:54.653280",
        "meta_mean_motion": 14.47389007,
        "meta_eccentricity": 0.00611889,
        "meta_inclination": 73.926,
        "meta_ra_of_asc_node": 62.9084,
        "meta_arg_of_pericenter": 358.2242,
        "meta_mean_anomaly": 1.8689,
        "meta_ephemeris_type": 0,
        "meta_classification_type": "U",
        "meta_norad_cat_id": 33928,
        "meta_element_set_no": 999,
        "meta_rev_at_epoch": 88565,
        "meta_bstar": 0.00045021987,
        "meta_mean_motion_dot": 1.661e-05,
        "meta_mean_motion_ddot": 0,
        "tle_line1": "1 33928U 93036EH  25341.24577145  .00001661  00000+0  45022-3 0  9995",
        "tle_line2": "2 33928  73.9260  62.9084 0061188 358.2242   1.8689 14.47389007885650"
      },
      "geometry": {
        "type": "Point",
        "coordinates": [
          20.68768965652598,
          -66.36185030424042
        ]
      }
    },
    {
      "type": "Feature",
      "properties": {
        "norad_id": 33932,
        "name": "COSMOS 2251 DEB",
        "group": "cosmos-2251-debris",
        "lat": -38.20733406350861,
        "lon": 158.07910709713983,
        "alt_km": 793.7381243866394,
        "timestamp": "2025-12-07T18:50:17.107909+00:00",
        "meta_object_name": "COSMOS 2251 DEB",
        "meta_object_id": "1993-036EM",
        "meta_epoch": "2025-12-07T06:08:19.564800",
        "meta_mean_motion": 14.38733324,
        "meta_eccentricity": 0.00350389,
        "meta_inclination": 74.0346,
        "meta_ra_of_asc_node": 326.0318,
        "meta_arg_of_pericenter": 43.745,
        "meta_mean_anomaly": 316.6471,
        "meta_ephemeris_type": 0,
        "meta_classification_type": "U",
        "meta_norad_cat_id": 33932,
        "meta_element_set_no": 999,
        "meta_rev_at_epoch": 87919,
        "meta_bstar": 0.00085975488,
        "meta_mean_motion_dot": 2.633e-05,
        "meta_mean_motion_ddot": 0,
        "tle_line1": "1 33932U 93036EM  25341.25578200  .00002633  00000+0  85975-3 0  9995",
        "tle_line2": "2 33932  74.0346 326.0318 0035038  43.7450 316.6471 14.38733324879191"
      },
      "geometry": {
        "type": "Point",
        "coordinates": [
          158.07910709713983,
          -38.20733406350861
        ]
      }
    },
    {
      "type": "Feature",
      "properties": {
        "norad_id": 33933,
        "name": "COSMOS 2251 DEB",
        "group": "cosmos-2251-debris",
        "lat": 16.234203009431994,
        "lon": -115.59734176663525,
        "alt_km": 774.6797674394202,
        "timestamp": "2025-12-07T18:50:17.107919+00:00",
        "meta_object_name": "COSMOS 2251 DEB",
        "meta_object_id": "1993-036EN",
        "meta_epoch": "2025-12-07T06:21:47.755584",
        "meta_mean_motion": 14.33475174,
        "meta_eccentricity": 0.00707811,
        "meta_inclination": 74.0893,
        "meta_ra_of_asc_node": 70.1138,
        "meta_arg_of_pericenter": 80.165,
        "meta_mean_anomaly": 280.7484,
        "meta_ephemeris_type": 0,
        "meta_classification_type": "U",
        "meta_norad_cat_id": 33933,
        "meta_element_set_no": 999,
        "meta_rev_at_epoch": 87706,
        "meta_bstar": 0.0005473798,
        "meta_mean_motion_dot": 1.53e-05,
        "meta_mean_motion_ddot": 0,
        "tle_line1": "1 33933U 93036EN  25341.26513606  .00001530  00000+0  54738-3 0  9994",
        "tle_line2": "2 33933  74.0893  70.1138 0070781  80.1650 280.7484 14.33475174877067"
      },
      "geometry": {
        "type": "Point",
        "coordinates": [
          -115.59734176663525,
          16.234203009431994
        ]
      }
    },
    {
      "type": "Feature",
      "properties": {
        "norad_id": 33934,
        "name": "COSMOS 2251 DEB",
        "group": "cosmos-2251-debris",
        "lat": -2.523065838191687,
        "lon": -69.26545139231672,
        "alt_km": 692.1543974844699,
        "timestamp": "2025-12-07T18:50:17.107929+00:00",
        "meta_object_name": "COSMOS 2251 DEB",
        "meta_object_id": "1993-036EP",
        "meta_epoch": "2025-12-07T01:32:49.306848",
        "meta_mean_motion": 14.59028601,
        "meta_eccentricity": 0.00158769,
        "meta_inclination": 74.0382,
        "meta_ra_of_asc_node": 111.3838,
        "meta_arg_of_pericenter": 235.0257,
        "meta_mean_anomaly": 124.9418,
        "meta_ephemeris_type": 0,
        "meta_classification_type": "U",
        "meta_norad_cat_id": 33934,
        "meta_element_set_no": 999,
        "meta_rev_at_epoch": 88656,
        "meta_bstar": 0.001612996,
        "meta_mean_motion_dot": 7.571e-05,
        "meta_mean_motion_ddot": 0,
        "tle_line1": "1 33934U 93036EP  25341.06445957  .00007571  00000+0  16130-2 0  9990",
        "tle_line2": "2 33934  74.0382 111.3838 0015876 235.0257 124.9418 14.59028601886562"
      },
      "geometry": {
        "type": "Point",
        "coordinates": [
          -69.26545139231672,
          -2.523065838191687
        ]
      }
    },
    {
      "type": "Feature",
      "properties": {
        "norad_id": 33936,
        "name": "COSMOS 2251 DEB",
        "group": "cosmos-2251-debris",
        "lat": 73.99961335926554,
        "lon": 134.93171570869995,
        "alt_km": 692.9534247528354,
        "timestamp": "2025-12-07T18:50:17.107939+00:00",
        "meta_object_name": "COSMOS 2251 DEB",
        "meta_object_id": "1993-036ER",
        "meta_epoch": "2025-12-07T03:37:47.135136",
        "meta_mean_motion": 14.60214541,
        "meta_eccentricity": 0.00279174,
        "meta_inclination": 74.0191,
        "meta_ra_of_asc_node": 48.1648,
        "meta_arg_of_pericenter": 204.6101,
        "meta_mean_anomaly": 155.3735,
        "meta_ephemeris_type": 0,
        "meta_classification_type": "U",
        "meta_norad_cat_id": 33936,
        "meta_element_set_no": 999,
        "meta_rev_at_epoch": 88808,
        "meta_bstar": 0.0011880178,
        "meta_mean_motion_dot": 5.734e-05,
        "meta_mean_motion_ddot": 0,
        "tle_line1": "1 33936U 93036ER  25341.15123999  .00005734  00000+0  11880-2 0  9997",
        "tle_line2": "2 33936  74.0191  48.1648 0027917 204.6101 155.3735 14.60214541888088"
      },
      "geometry": {
        "type": "Point",
        "coordinates": [
          134.93171570869995,
          73.99961335926554
        ]
      }
    },
    {
      "type": "Feature",
      "properties": {
        "norad_id": 33938,
        "name": "COSMOS 2251 DEB",
        "group": "cosmos-2251-debris",
        "lat": -3.149620403941151,
        "lon": 37.32896375675996,
        "alt_km": 744.4283051919492,
        "timestamp": "2025-12-07T18:50:17.107949+00:00",
        "meta_object_name": "COSMOS 2251 DEB",
        "meta_object_id": "1993-036ET",
        "meta_epoch": "2025-12-07T02:05:33.965952",
        "meta_mean_motion": 14.46767431,
        "meta_eccentricity": 0.00168767,
        "meta_inclination": 74.0453,
        "meta_ra_of_asc_node": 217.7291,
        "meta_arg_of_pericenter": 300.3243,
        "meta_mean_anomaly": 210.4951,
        "meta_ephemeris_type": 0,
        "meta_classification_type": "U",
        "meta_norad_cat_id": 33938,
        "meta_element_set_no": 999,
        "meta_rev_at_epoch": 88318,
        "meta_bstar": 0.00077399646,
        "meta_mean_motion_dot": 2.78e-05,
        "meta_mean_motion_ddot": 0,
        "tle_line1": "1 33938U 93036ET  25341.08719868  .00002780  00000+0  77400-3 0  9996",
        "tle_line2": "2 33938  74.0453 217.7291 0016876 300.3243 210.4951 14.46767431883186"
      },
      "geometry": {
        "type": "Point",
        "coordinates": [
          37.32896375675996,
          -3.149620403941151
        ]
      }
    }
  ]
}